STARLINK-31176          
1 58745U 24005T   24022.16668981 -.01776921  00000+0 -14042-1 0  9991
2 58745  43.0012 135.6461 0001060 312.1242  94.5660 15.73582324  3350
STARLINK-31181          
1 58746U 24005U   24022.16668981 -.01705793  00000+0 -13814-1 0  9997
2 58746  43.0020 135.2472 0001196 276.3211 289.0914 15.72886969  3405
STARLINK-31183          
1 58747U 24005V   24022.16668981 -.01731953  00000+0 -13662-1 0  9996
2 58747  43.0012 135.6414 0001321 274.5602 133.9142 15.73538524  3458
STARLINK-31165          
1 58748U 24005W   24022.16668981 -.01717759  00000+0 -13546-1 0  9996
2 58748  43.0011 135.6392 0001302 328.0354  81.3391 15.73519775  3359
STARLINK-31160          
1 58749U 24005X   24021.91667824 -.01068589  00000+0 -64695-2 0  9996
2 58749  43.0038 136.5132 0002063 276.3555  50.0801 15.79020933  3329
STARLINK-31179          
1 58750U 24005Y   24022.16668981 -.01836453  00000+0 -14523-1 0  9998
2 58750  43.0012 135.6342 0002052 313.5484  97.4992 15.73663738  3358
VULCAN CENTAUR R/B      
1 58752U 24006B   24008.31572917  .00000148  00000+0  00000+0 0  9999
2 58752  30.0000  29.8668 0004000 321.7000 177.4980 15.23529836    08
EINSTEIN PROBE          
1 58753U 24007A   24021.71041622  .00004856  00000+0  44119-3 0  9997
2 58753  28.9977 126.4189 0011516  57.6973 302.4737 14.93173858  1864
CZ-2C R/B               
1 58754U 24007B   24021.66968287  .00012262  00000+0  54410-3 0  9992
2 58754  29.0163 124.0538 0113916 115.2377 246.0080 15.14271942  1830
TIANXING-1 02           
1 58756U 24008A   24022.15644607  .00119783  00000+0  58905-3 0  9996
2 58756  95.1279  93.3843 0024811 152.7570 207.5011 15.81385025  1745
YUNYAO-1 18             
1 58758U 24009A   24022.14340371  .00031723  00000+0  12041-2 0  9996
2 58758  49.9893 117.9249 0014403 331.3616  28.6548 15.26424462  1667
YUNYAO-1 19             
1 58759U 24009B   24022.14361283  .00031527  00000+0  11980-2 0  9995
2 58759  49.9830 117.9230 0014094 331.9513  28.0682 15.26394148  1678
YUNYAO-1 20             
1 58760U 24009C   24022.14298567  .00031802  00000+0  12050-2 0  9996
2 58760  49.9895 117.9222 0014140 333.7185  26.3052 15.26484793  1677
GRAVITY-1 R/B           
1 58761U 24009D   24021.76991344  .00066095  11568-4  39882-3 0  9998
2 58761  49.8523 116.7520 0160270  26.4346 334.4688 15.61934199  1659
STARLINK-31127          
1 58765U 24011A   24022.16668981 -.00806730  00000+0 -37623-2 0  9992
2 58765  53.1641 298.6074 0001068  53.5137  84.7758 15.84558329  2346
STARLINK-31114          
1 58766U 24011B   24022.16668981 -.00816307  00000+0 -38059-2 0  9998
2 58766  53.1639 298.6037 0001213  48.2170  91.7576 15.84585868  2347
STARLINK-31140          
1 58767U 24011C   24022.16668981 -.00826911  00000+0 -38556-2 0  9993
2 58767  53.1638 298.5997 0000712  62.9349  78.9080 15.84614104  2450
STARLINK-31145          
1 58768U 24011D   24022.16668981 -.00828047  00000+0 -38571-2 0  9993
2 58768  53.1637 298.5965 0001067  44.6656  98.7466 15.84634260  2348
STARLINK-31146          
1 58769U 24011E   24022.16668981 -.00842369  00000+0 -39254-2 0  9996
2 58769  53.1640 298.5932 0000718  65.4555  79.7413 15.84663258  2450
STARLINK-31143          
1 58770U 24011F   24022.16668981 -.00852882  00000+0 -39741-2 0  9990
2 58770  53.1638 298.5895 0000875  65.0006  81.8425 15.84688802  2345
STARLINK-31135          
1 58771U 24011G   24021.91667824 -.00922935  00000+0 -42230-2 0  9992
2 58771  53.1640 299.8450 0000581 102.1154  58.9179 15.85234941  2311
STARLINK-31136          
1 58772U 24011H   24022.16668981 -.00873053  00000+0 -40675-2 0  9993
2 58772  53.1638 298.5825 0001018  49.3985 100.7721 15.84739163  2450
STARLINK-31073          
1 58773U 24011J   24022.16668981 -.00879291  00000+0 -40956-2 0  9996
2 58773  53.1637 298.5788 0000767  57.4043  94.5022 15.84761268  2346
STARLINK-31122          
1 58774U 24011K   24021.91667824 -.00951220  00000+0 -43477-2 0  9998
2 58774  53.1639 299.8342 0000619  87.8167  78.4295 15.85325378  2420
STARLINK-31123          
1 58775U 24011L   24021.91667824 -.00966506  00000+0 -44175-2 0  9998
2 58775  53.1639 299.8300 0000748  72.1516  96.0961 15.85361624  2311
STARLINK-31117          
1 58776U 24011M   24021.91667824 -.00974360  00000+0 -44526-2 0  9996
2 58776  53.1638 299.8273 0000674  70.7712  98.7529 15.85385056  2314
STARLINK-31132          
1 58777U 24011N   24021.91667824 -.00982214  00000+0 -44863-2 0  9998
2 58777  53.1638 299.8237 0000794  72.2468  99.0986 15.85413071  2425
STARLINK-31120          
1 58778U 24011P   24021.91667824 -.01005701  00000+0 -45936-2 0  9999
2 58778  53.1635 299.8166 0000755  56.9791 117.6286 15.85470658  2311
STARLINK-31142          
1 58779U 24011Q   24021.91667824 -.00988823  00000+0 -45152-2 0  9994
2 58779  53.1637 299.8200 0000593 102.3764  70.4740 15.85436899  2421
STARLINK-31103          
1 58780U 24011R   24021.91667824 -.01010365  00000+0 -46124-2 0  9994
2 58780  53.1634 299.8128 0000609  88.3439  88.0630 15.85494581  2312
STARLINK-31099          
1 58781U 24011S   24021.91667824 -.01031772  00000+0 -47099-2 0  9992
2 58781  53.1634 299.8061 0000646  70.6923 108.9635 15.85547733  2317
STARLINK-31060          
1 58782U 24011T   24022.25001157 -.00964007  00000+0 -45337-2 0  9990
2 58782  53.1627 298.1298 0000804  59.0649 222.2643 15.84768044  2358
STARLINK-31047          
1 58783U 24011U   24021.91667824 -.01035585  00000+0 -47245-2 0  9993
2 58783  53.1634 299.8027 0000671  94.0937  87.2612 15.85569006  2315
STARLINK-31039          
1 58784U 24011V   24021.91667824 -.01047370  00000+0 -47786-2 0  9999
2 58784  53.1634 299.7988 0000637  98.7471  84.4988 15.85596947  2316
STARLINK-31034          
1 58785U 24011W   24022.16668981  .00370621  00000+0  13789-2 0  9994
2 58785  53.1632 298.5330 0000155 344.3730 189.5280 15.86529098  2345
STARLINK-31024          
1 58786U 24011X   24021.91667824 -.01064803  00000+0 -48568-2 0  9990
2 58786  53.1633 299.7912 0000747 102.8927  83.7638 15.85644559  2316
TIANZHOU-7              
1 58811U 24013A   24021.15725331  .00021832  00000+0  24054-3 0  9992
2 58811  41.4687 267.5057 0007708 210.4659 149.5733 15.62561500155921
CZ-7 R/B                
1 58812U 24013B   24022.13570144  .01119035  75886-5  53700-3 0  9996
2 58812  41.4702 259.5914 0075584 208.9078 288.0097 16.13428509   735
CZ-7 DEB                
1 58813U 24013C   24018.11402078 -.00002294  72670-5  00000+0 0  9997
2 58813  41.8298 285.9373 0234014 181.6233 328.2070 15.73710950    93
CZ-7 DEB                
1 58814U 24013D   24018.11444661 -.00002240  70950-5  00000+0 0  9992
2 58814  41.6413 286.0086 0240306 187.1577 323.2676 15.72861586    84
AXIOM-3                 
1 58815U 24015A   24021.33698155  .00025877  00000+0  46474-3 0  9994
2 58815  51.6423 327.9609 0005057 112.9091  22.8883 15.49694343435625
2024-015A               
1 58817U 24015A   24021.63327689 -.00016820  00000+0 -51005-2 0  9995
2 58817  64.5182 108.7489 0011893 252.0566 107.9552 14.41907359   206
2024-015B               
1 58818U 24015B   24020.82941559 -.00000108  00000+0  00000+0 0  9991
2 58818  64.5073 111.0757 0011824 282.8793 227.3870 14.43302164    89
2024-015C               
1 58819U 24015C   24020.62287676 -.00000108  00000+0  00000+0 0  9993
2 58819  64.5084 111.6596 0012646 291.6021 225.7377 14.43647699    16
